NORAD_CAT_ID,OBJECT_NAME,OBJECT_TYPE,EPOCH,MEAN_MOTION,ECCENTRICITY,INCLINATION,RA_OF_ASC_NODE,ARG_OF_PERICENTER,MEAN_ANOMALY,BSTAR,MEAN_MOTION_DOT,MEAN_MOTION_DDOT,TLE_LINE0,TLE_LINE1,TLE_LINE2,SEMIMAJOR_AXIS,PERIOD,APOGEE,PERIGEE,DECAYED
53997.0,STARLINK-5130,PAYLOAD,2022-12-22 06:00:00,15.29595043,0.0001646,53.2176,72.8856,51.1363,145.3637,-0.03417,-0.00910468,0.0,0 STARLINK-5130,1 53997U 22125AK  22356.25001157 -.00910468  00000-0 -34170-1 0  9990,2 53997  53.2176  72.8856 0001646  51.1363 145.3637 15.29595043 12501,6855.159000000002,94.143,478.152,475.896,0.0
53997.0,STARLINK-5130,PAYLOAD,2022-12-22 14:00:01,15.289431900000002,0.0002033,53.2176,71.3433,35.0126,197.6237,-0.034819,-0.00909387,0.0,0 STARLINK-5130,1 53997U 22125AK  22356.58334491 -.00909387  00000-0 -34819-1 0  9994,2 53997  53.2176  71.3433 0002033  35.0126 197.6237 15.28943190  1306,6857.107,94.183,480.366,477.578,0.0
53997.0,STARLINK-5130,PAYLOAD,2022-12-22 22:00:00,15.2829506,0.0001892,53.2175,69.7994,34.6685,233.3224,-0.035749,-0.00926158,0.0,0 STARLINK-5130,1 53997U 22125AK  22356.91667824 -.00926158  00000-0 -35749-1 0  9998,2 53997  53.2175  69.7994 0001892  34.6685 233.3224 15.28295060  1305,6859.045999999999,94.223,482.209,479.61300000000006,0.0
53997.0,STARLINK-5130,PAYLOAD,2022-12-23 06:00:00,15.27642163,0.0001629,53.2176,68.258,43.3186,259.2454,-0.036289,-0.00921776,0.0,0 STARLINK-5130,1 53997U 22125AK  22357.25001157 -.00921776  00000-0 -36289-1 0  9998,2 53997  53.2176  68.2580 0001629  43.3186 259.2454 15.27642163 12653,6861.0,94.263,483.983,481.747,0.0
53997.0,STARLINK-5130,PAYLOAD,2022-12-23 14:00:01,15.26994553,0.0001576999999999,53.2174,66.7209,44.9011,291.4501,-0.037256,-0.00927342,0.0,0 STARLINK-5130,1 53997U 22125AK  22357.58334491 -.00927342  00000-0 -37256-1 0  9994,2 53997  53.2174  66.7209 0001577  44.9011 291.4501 15.26994553  1301,6862.94,94.303,485.887,483.722,0.0
53997.0,STARLINK-5130,PAYLOAD,2022-12-23 22:00:01,15.26379359,0.0001720999999999,53.2172,65.1815,26.3711,343.0354,-0.040216,-0.00978295,0.0,0 STARLINK-5130,1 53997U 22125AK  22357.91668981 -.00978295  00000-0 -40216-1 0  9998,2 53997  53.2172  65.1815 0001721  26.3711 343.0354 15.26379359  1308,6864.784000000002,94.341,487.83,485.467,0.0
53997.0,STARLINK-5130,PAYLOAD,2022-12-24 06:00:00,15.25707719,0.0005611,53.2171,63.6447,273.6035,127.9761,-0.039846,-0.00952689,0.0,0 STARLINK-5130,1 53997U 22125AK  22358.25001157 -.00952689  00000-0 -39846-1 0  9998,2 53997  53.2171  63.6447 0005611 273.6035 127.9761 15.25707719 12812,6866.7980000000025,94.382,492.516,484.81,0.0
53997.0,STARLINK-5130,PAYLOAD,2022-12-24 14:00:01,15.2505087,0.000148,53.2174,62.1116,49.423,23.6008,-0.04015,-0.0094104,0.0,0 STARLINK-5130,1 53997U 22125AK  22358.58334491 -.00941040  00000-0 -40150-1 0  9993,2 53997  53.2174  62.1116 0001480  49.4230  23.6008 15.25050870 12868,6868.77,94.423,491.651,489.61800000000005,0.0
53997.0,STARLINK-5130,PAYLOAD,2022-12-24 22:00:00,15.24387382,0.0001725,53.2173,60.5767,41.5971,62.0943,-0.040115,-0.00923051,0.0,0 STARLINK-5130,1 53997U 22125AK  22358.91667824 -.00923051  00000-0 -40115-1 0  9992,2 53997  53.2173  60.5767 0001725  41.5971  62.0943 15.24387382  1300,6870.763000000001,94.464,493.81300000000016,491.442,0.0
53997.0,STARLINK-5130,PAYLOAD,2022-12-25 14:00:01,15.23085369,0.0001626,53.2173,57.5161,49.5189,113.1463,-0.041667,-0.00922166,0.0,0 STARLINK-5130,1 53997U 22125AK  22359.58334491 -.00922166  00000-0 -41667-1 0  9996,2 53997  53.2173  57.5161 0001626  49.5189 113.1463 15.23085369  1307,6874.678000000001,94.545,497.661,495.425,0.0
53997.0,STARLINK-5130,PAYLOAD,2022-12-25 22:00:00,15.22435391,0.0001746,53.2172,55.9856,43.8716,147.1084,-0.042563,-0.00923839,0.0,0 STARLINK-5130,1 53997U 22125AK  22359.91667824 -.00923839  00000-0 -42563-1 0  9996,2 53997  53.2172  55.9856 0001746  43.8716 147.1084 15.22435391 13060,6876.634,94.585,499.7,497.299,0.0
53997.0,STARLINK-5130,PAYLOAD,2022-12-26 00:00:00,15.22267887,0.000159,53.2174,55.603,43.6796,244.2591,-0.042412,-0.00916531,0.0,0 STARLINK-5130,1 53997U 22125AK  22360.00001157 -.00916531  00000-0 -42412-1 0  9993,2 53997  53.2174  55.6030 0001590  43.6796 244.2591 15.22267887  1305,6877.139,94.596,500.097,497.91,0.0
53997.0,STARLINK-5130,PAYLOAD,2022-12-26 14:00:01,15.21132566,0.000161,53.2172,52.9343,49.8219,195.4383,-0.044121,-0.00921589,0.0,0 STARLINK-5130,1 53997U 22125AK  22360.58334491 -.00921589  00000-0 -44121-1 0  9994,2 53997  53.2172  52.9343 0001610  49.8219 195.4383 15.21132566  1301,6880.56,94.666,503.533,501.317,0.0
53997.0,STARLINK-5130,PAYLOAD,2022-12-26 22:00:00,15.20485658,0.0001661,53.2172,51.4085,43.3833,227.8438,-0.045323,-0.00928326,0.0,0 STARLINK-5130,1 53997U 22125AK  22360.91667824 -.00928326  00000-0 -45323-1 0  9991,2 53997  53.2172  51.4085 0001661  43.3833 227.8438 15.20485658 13211,6882.512,94.707,505.52,503.233,0.0
53997.0,STARLINK-5130,PAYLOAD,2022-12-27 00:00:00,15.20314145,0.0001626,53.2172,51.027,38.5194,329.0817,-0.044889,-0.00915782,0.0,0 STARLINK-5130,1 53997U 22125AK  22361.00001157 -.00915782  00000-0 -44889-1 0  9991,2 53997  53.2172  51.0270 0001626  38.5194 329.0817 15.20314145  1305,6883.029,94.717,506.013,503.775,0.0
53997.0,STARLINK-5130,PAYLOAD,2022-12-27 14:00:01,15.19188883,0.0001509,53.2171,48.3662,44.4063,276.4045,-0.047426,-0.009347,0.0,0 STARLINK-5130,1 53997U 22125AK  22361.58334491 -.00934700  00000-0 -47426-1 0  9995,2 53997  53.2171  48.3662 0001509  44.4063 276.4045 15.19188883  1303,6886.428000000001,94.787,509.332,507.254,0.0
53997.0,STARLINK-5130,PAYLOAD,2022-12-27 22:00:00,15.18529766,0.0001689,53.2171,46.8448,37.0067,307.4301,-0.047787,-0.00924733,0.0,0 STARLINK-5130,1 53997U 22125AK  22361.91667824 -.00924733  00000-0 -47787-1 0  9996,2 53997  53.2171  46.8448 0001689  37.0067 307.4301 15.18529766  1307,6888.42,94.829,511.449,509.122,0.0
53997.0,STARLINK-5130,PAYLOAD,2022-12-28 06:00:00,15.1788128,0.000182,53.217,45.3267,34.1222,333.1513,-0.048877,-0.00927976,0.0,0 STARLINK-5130,1 53997U 22125AK  22362.25001157 -.00927976  00000-0 -48877-1 0  9998,2 53997  53.2170  45.3267 0001820  34.1222 333.1513 15.17881280 13425,6890.382,94.869,513.501,510.99300000000005,0.0
53997.0,STARLINK-5130,PAYLOAD,2022-12-28 14:00:01,15.17235153,0.0001629999999999,53.217,43.8116,43.2532,346.0730000000001,-0.050176,-0.00934476,0.0,0 STARLINK-5130,1 53997U 22125AK  22362.58334491 -.00934476  00000-0 -50176-1 0  9992,2 53997  53.2170  43.8116 0001630  43.2532 346.0730 15.17235153  1305,6892.3380000000025,94.909,515.327,513.08,0.0
53997.0,STARLINK-5130,PAYLOAD,2022-12-28 22:00:00,15.16571596,0.0001771999999999,53.2171,42.2948,33.4533,17.1537,-0.0501319999999999,-0.00917355,0.0,0 STARLINK-5130,1 53997U 22125AK  22362.91667824 -.00917355  00000-0 -50132-1 0  9997,2 53997  53.2171  42.2948 0001772  33.4533  17.1537 15.16571596  1305,6894.348000000001,94.951,517.435,514.992,0.0
53997.0,STARLINK-5130,PAYLOAD,2022-12-29 06:00:02,15.15934248,0.0001874,53.2169,40.7814,37.245,33.9097,-0.05223,-0.00936894,0.0,0 STARLINK-5130,1 53997U 22125AK  22363.25002315 -.00936894  00000-0 -52230-1 0  9993,2 53997  53.2169  40.7814 0001874  37.2450  33.9097 15.15934248 13575,6896.281,94.991,519.438,516.8530000000002,0.0
53997.0,STARLINK-5130,PAYLOAD,2022-12-29 14:00:01,15.15273973,0.0001749,53.217,39.2708,42.5544,48.2494,-0.052348,-0.00922569,0.0,0 STARLINK-5130,1 53997U 22125AK  22363.58334491 -.00922569  00000-0 -52348-1 0  9996,2 53997  53.2170  39.2708 0001749  42.5544  48.2494 15.15273973  1305,6898.284000000002,95.032,521.355,518.942,0.0
53997.0,STARLINK-5130,PAYLOAD,2022-12-30 14:00:01,15.13318818,0.000175,53.217,34.7435,43.3862,101.8519,-0.055117,-0.00919231,0.0,0 STARLINK-5130,1 53997U 22125AK  22364.58334491 -.00919231  00000-0 -55117-1 0  9996,2 53997  53.2170  34.7435 0001750  43.3862 101.8519 15.13318818 13770,6904.224,95.155,527.297,524.881,0.0
53997.0,STARLINK-5130,PAYLOAD,2022-12-31 14:00:01,15.11371625,0.0001724,53.2169,30.23,47.1674,145.4607,-0.058786,-0.00927614,0.0,0 STARLINK-5130,1 53997U 22125AK  22365.58334491 -.00927614  00000-0 -58786-1 0  9996,2 53997  53.2169  30.2300 0001724  47.1674 145.4607 15.11371625 13926,6910.153,95.278,533.2090000000002,530.827,0.0
53997.0,STARLINK-5130,PAYLOAD,2022-12-31 22:00:00,15.10708358,0.0001898,53.2171,28.7269,39.4255,167.4425,-0.058698,-0.00910623,0.0,0 STARLINK-5130,1 53997U 22125AK  22365.91667824 -.00910623  00000-0 -58698-1 0  9996,2 53997  53.2171  28.7269 0001898  39.4255 167.4425 15.10708358  1303,6912.175,95.32,535.352,532.729,0.0
53997.0,STARLINK-5130,PAYLOAD,2023-01-01 14:00:01,15.09307887,0.000204,53.2168,25.73,39.5012,193.4952,-0.033961,-0.00515499,0.0,0 STARLINK-5130,1 53997U 22125AK  23001.58334491 -.00515499  00000-0 -33961-1 0  9996,2 53997  53.2168  25.7300 0002040  39.5012 193.4952 15.09307887  1308,6916.451,95.408,539.727,536.905,0.0
53997.0,STARLINK-5130,PAYLOAD,2023-01-01 22:00:00,15.08916063,0.0001751,53.2163,24.2314,39.3872,205.4912,-0.0046971,-0.00074426,0.0,0 STARLINK-5130,1 53997U 22125AK  23001.91667824 -.00074426  00000-0 -46971-2 0  9998,2 53997  53.2163  24.2314 0001751  39.3872 205.4912 15.08916063 14127,6917.648,95.433,540.724,538.302,0.0
53997.0,STARLINK-5130,PAYLOAD,2023-01-02 00:00:00,15.08899216,0.0001746,53.2164,23.8569,39.6761,298.1246,-0.0043263999999999,-0.00068599,0.0,0 STARLINK-5130,1 53997U 22125AK  23002.00001157 -.00068599  00000-0 -43264-2 0  9996,2 53997  53.2164  23.8569 0001746  39.6761 298.1246 15.08899216  1304,6917.699000000001,95.434,540.7719999999998,538.357,0.0
53997.0,STARLINK-5130,PAYLOAD,2023-01-02 06:00:00,15.08880389,0.0001686,53.2154,22.7366,36.0806,220.4587,-0.00026882,-4.569e-05,0.0,0 STARLINK-5130,1 53997U 22125AK  23002.25001157 -.00004569  00000-0 -26882-3 0  9998,2 53997  53.2154  22.7366 0001686  36.0806 220.4587 15.08880389 14176,6917.757,95.435,540.788,538.456,0.0
